LEMUR-2-YNDRD           
1 44413U 19038AD  23079.49421198  .00035792  00000+0  13808-2 0  9993
2 44413  97.6555  56.8219 0013588 257.6201 102.3516 15.26126532204933
NARSSCUBE-2             
1 44415U 19022E   23079.39648359  .00030964  00000+0  68992-3 0  9998
2 44415  51.6362 215.7327 0010497 331.3374  28.7034 15.43271749202578
RFTSAT                  
1 44417U 19022G   23079.56935449  .00106435  00000+0  11735-2 0  9997
2 44417  51.6351 188.7933 0011709 343.8058  16.2560 15.62189621202972
JAISAT-1                
1 44419U 19038F   23079.49793826  .00026287  00000+0  10335-2 0  9990
2 44419  97.6684  58.5957 0013036 249.1088 110.8755 15.25570553204997
COSMOS 2536             
1 44422U 19039B   23079.54674949  .00031042  00000+0  27450-2 0  9996
2 44422  97.7176 126.8600 0008345 188.0925 172.0087 14.96216203200394
COSMOS 2537             
1 44423U 19039C   23079.54101559  .00061593  00000+0  40892-2 0  9998
2 44423  97.7440 133.9944 0008786 173.1145 294.8538 15.06934864200562
COSMOS 2538             
1 44424U 19039D   23079.49513718  .00004525  00000+0  34790-3 0  9990
2 44424  97.7324 142.1688 0057011 144.0385 216.4696 15.00927125201011
YAOGAN-30 N             
1 44449U 19045A   23079.49156601  .00004509  00000+0  44101-3 0  9997
2 44449  34.9977 289.8292 0003820  60.9694 299.1377 14.91809775199001
YAOGAN-30 P             
1 44450U 19045B   23079.53493871  .00004542  00000+0  44432-3 0  9991
2 44450  34.9976 289.1627 0009384 237.2969 122.6805 14.91775385199007
YAOGAN-30 Q             
1 44451U 19045C   23079.51399622  .00004455  00000+0  43607-3 0  9995
2 44451  34.9987 289.1053 0001807 284.2408  75.8075 14.91788684198974
MERIDIAN 8              
1 44453U 19046A   23077.64977807  .00000231  00000+0  00000+0 0  9991
2 44453  62.6745 184.8970 6716099 274.2342 236.4114  2.00612131 26624
COSMOS 2539             
1 44457U 19048A   23078.27341255  .00000064  00000+0  00000+0 0  9993
2 44457   0.0237 125.1621 0000315 221.7862 300.0414  1.00275254 13331
EDRS-C                  
1 44475U 19049A   23078.42252830  .00000137  00000+0  00000+0 0  9992
2 44475   0.0669 256.5936 0000913 117.1757 346.2086  1.00273730 13315
INTELSAT 39 (IS-39)     
1 44476U 19049B   23079.19334622  .00000015  00000+0  00000+0 0  9993
2 44476   0.0167 175.2443 0001468 351.4360 142.3076  1.00270927 13250
AMOS-17                 
1 44479U 19050A   23079.44702022  .00000091  00000+0  00000+0 0  9993
2 44479   0.0181 172.1189 0001448 189.7027 353.7931  1.00271737 13306
AEHF-5 (USA 292)        
1 44481U 19051A   23079.06716057  .00000063  00000+0  00000+0 0  9997
2 44481   3.7066 304.4910 0048885   0.5659 310.8864  1.00269816 13371
AEROCUBE 10B (DOUGSAT)  
1 44484U 19022C   23079.57550736  .00140854  00000+0  11835-2 0  9998
2 44484  51.6270 185.6269 0012300 353.5155   6.5681 15.68839438202989
AEROCUBE 10A (JIMSAT)   
1 44485U 19022D   23079.57219925  .00181559  00000+0  14777-2 0  9996
2 44485  51.6253 185.5874 0012275 343.5555  16.5042 15.69472108202986
BRO-1                   
1 44495U 19054A   23079.19716076  .00010164  00000+0  57308-3 0  9990
2 44495  45.0184 349.9737 0009346  60.8814  97.1037 15.13392358197768
PEARL WHITE 1           
1 44497U 19054C   23079.18981589  .00017984  00000+0  94449-3 0  9998
2 44497  45.0121 346.9493 0008037  77.1863  49.9755 15.15499906197747
PEARL WHITE 2           
1 44498U 19054D   23079.14516137  .00016915  00000+0  88322-3 0  9994
2 44498  45.0112 344.0646 0008806  73.6565  73.3796 15.15735894197791
GLOBAL-4                
1 44499U 19054E   23079.33892872  .00010108  00000+0  49218-3 0  9998
2 44499  45.0107 306.5073 0011226 110.1053 250.1035 15.18572776198188
NAVSTAR 78 (USA 293)    
1 44506U 19056A   23079.20891703 -.00000096  00000+0  00000+0 0  9995
2 44506  55.7826  18.0995 0030225 185.3179 304.2882  2.00562280 26305
COSMOS 2540             
1 44517U 19057A   23079.59309750  .00000071  00000+0  10000-3 0  9993
2 44517  99.2476  92.4879 0012744  90.5204  18.0129 13.85968288179788
XIAOXIANG-1 07          
1 44519U 19058A   23079.45154513  .00021195  00000+0  18246-2 0  9995
2 44519  97.7892  89.2093 0010093 325.9092  34.1379 14.97341547193309
KX-09                   
1 44520U 19058B   23079.44193701  .00002679  00000+0  27880-3 0  9999
2 44520  97.7942  87.1990 0011012 331.4297  28.6321 14.90649799193174
ZY-1 02D                
1 44528U 19059A   23079.55481953 -.00008398  00000+0 -29178-2 0  9996
2 44528  98.4525 157.1838 0001072  76.5997 283.5438 14.35342828184392
BNU-1 (JINGSHI 1)       
1 44529U 19059B   23079.56118962  .00000933  00000+0  27609-3 0  9998
2 44529  98.5168 180.7009 0013113   0.9372 359.1842 14.45695441185669
TAURUS-1 (JINNIUZUO 1)  
1 44530U 19059C   23079.52108974  .00007998  00000+0  21113-2 0  9999
2 44530  98.5465 186.0546 0011622   7.4641 352.6648 14.49133533185799
SEEKER                  
1 44533U 19022K   23079.54828226  .00042741  00000+0  78426-3 0  9998
2 44533  51.6316 200.0202 0010505 331.5447  28.4966 15.48780686196663
ZHUHAI-1 03A            
1 44534U 19060A   23079.59066703  .00030678  00000+0  10538-2 0  9995
2 44534  97.4675 193.6445 0014728 161.4896 255.5615 15.29962260194194
ZHUHAI-1 03B            
1 44536U 19060C   23079.58323212  .00029304  00000+0  10117-2 0  9994
2 44536  97.4706 193.8683 0011251 159.1549 256.9452 15.29850890194205
ZHUHAI-1 03C            
1 44537U 19060D   23079.57177166  .00030168  00000+0  10418-2 0  9993
2 44537  97.4617 192.7211 0009966 178.9903 238.2305 15.29849708194201
ZHUHAI-1 03D            
1 44538U 19060E   23079.55830154  .00029475  00000+0  10197-2 0  9998
2 44538  97.4583 192.3050 0009782 173.1529 243.6694 15.29800081194200
ZHUHAI-1 03E            
1 44539U 19060F   23079.55727242  .00029488  00000+0  10177-2 0  9994
2 44539  97.4731 194.1460 0009216 190.4825 300.0832 15.29881063194205
BEIDOU-3 M24            
1 44542U 19061A   23078.65094651 -.00000010  00000+0  00000+0 0  9992
2 44542  54.5188 222.7719 0007689 359.4944   0.4482  1.86231100 23713
BEIDOU-3 M23            
1 44543U 19061B   23078.73944815 -.00000011  00000+0  00000+0 0  9999
2 44543  54.5173 222.7384 0004796 357.4406 333.4913  1.86231442 23709
YUNHAI 1-02             
1 44547U 19063A   23079.55097301  .00000419  00000+0  16946-3 0  9996
2 44547  98.4788 104.2577 0002802  96.1938 263.9575 14.32865472182217
COSMOS 2541             
1 44552U 19065A   23078.31010601 -.00000889  00000+0  00000+0 0  9997
2 44552  63.0276 273.8868 6852339 271.5772 310.9414  2.00583987 25466
GAOFEN 10R              
1 44622U 19066A   23079.48002691  .00003402  00000+0  44173-3 0  9991
2 44622  97.9196  19.9203 0003077 156.0758 204.0564 14.81383612186861
EUTELSAT 5 WEST B       
1 44624U 19067A   23079.39504552 -.00000061  00000+0  00000+0 0  9993
2 44624   0.0653   1.2737 0002828  67.8110 245.7539  1.00271798 12563
MEV-1                   
1 44625U 19067B   23078.43938431 -.00000220  00000+0  00000+0 0  9992
2 44625   0.0154 230.8899 0000906 148.1265 288.3674  1.00272273 11097
PALISADE                
1 44634U 19069A   23079.50096365  .00000506  00000+0  13826-2 0  9993
2 44634  87.9014 155.3871 0009614  18.2148 341.9323 13.11847377163788
TJS-4                   
1 44637U 19070A   23079.56715946 -.00000187  00000+0  00000+0 0  9990
2 44637   0.0799 307.8460 0002854  68.3734  89.2329  1.00269097 12661
GAOFEN 7                
1 44703U 19072A   23079.53138194  .00009386  00000+0  42076-3 0  9999
2 44703  97.3776 158.2162 0003757 253.2726 231.7054 15.21430949187526
SRSS-1                  
1 44704U 19072B   23079.53355741  .00047968  00000+0  11820-2 0  9999
2 44704  97.3969 169.4434 0011367 241.2169 244.6528 15.40356150188174
HUANGPU-1               
1 44705U 19072C   23079.55077997  .00050769  00000+0  11506-2 0  9990
2 44705  97.3799 168.5737 0010927 237.9284 252.8414 15.42872233188254
XIAOXIANG 1-08          
1 44706U 19072D   23079.52068117  .00250216  00000+0  21163-2 0  9991
2 44706  97.3948 175.6858 0010186 225.0708 259.6721 15.68909994188585
BEIDOU-3 IGSO-3         
1 44709U 19073A   23079.49150868 -.00000152  00000+0  00000+0 0  9993
2 44709  56.8109 293.5095 0029023 178.1151   2.4865  1.00278731 12566
STARLINK-1007           
1 44713U 19074A   23079.22439026  .00029406  00000+0  19853-2 0  9997
2 44713  53.0538  19.4587 0000988 110.7999 249.3096 15.06390509185140
STARLINK-1008           
1 44714U 19074B   23079.20321671  .00024370  00000+0  16502-2 0  9995
2 44714  53.0551  19.5584 0001519  84.9737 275.1425 15.06379735185148
STARLINK-1009           
1 44715U 19074C   23079.19216347  .00023947  00000+0  16213-2 0  9995
2 44715  53.0560  19.6043 0001325 101.6009 258.5129 15.06394758185131
STARLINK-1010           
1 44716U 19074D   23079.54232362  .00030015  00000+0  20255-2 0  9995
2 44716  53.0550  18.0328 0001230 115.0660 245.0456 15.06396927185175
STARLINK-1011           
1 44717U 19074E   23079.27509449  .00018394  00000+0  12506-2 0  9995
2 44717  53.0533  39.2305 0001659  82.7115 277.4063 15.06396972184876
STARLINK-1012           
1 44718U 19074F   23079.24744934  .00031094  00000+0  20977-2 0  9996
2 44718  53.0546  19.3546 0000824  47.2280 312.8779 15.06390551185145
STARLINK-1013           
1 44719U 19074G   23079.12211967  .00022802  00000+0  15452-2 0  9998
2 44719  53.0540  19.9184 0001229 107.6548 252.4575 15.06388155186255
STARLINK-1014           
1 44720U 19074H   23079.53768193  .00001206  00000+0  99826-4 0  9997
2 44720  53.0547  18.0428 0001865  88.0151 272.1051 15.06399800185192
STARLINK-1015           
1 44721U 19074J   23079.19583470 -.00004082  00000+0 -25537-3 0  9997
2 44721  53.0570  19.5907 0001667 112.9608 247.1557 15.06388122185133
STARLINK-1017           
1 44723U 19074L   23079.54601295  .00029573  00000+0  19949-2 0  9993
2 44723  53.0559  18.0174 0001526  85.4746 274.6417 15.06419037185199
